{
    "CCSDS_OMM_VERS": "3.0",
    "COMMENT": "GENERATED VIA SPACE-TRACK.ORG API",
    "CREATION_DATE": "2025-11-24T07:36:20",
    "ORIGINATOR": "18 SPCS",
    "OBJECT_NAME": "BEIDOU 3 G4",
    "OBJECT_ID": "2023-066A",
    "CENTER_NAME": "EARTH",
    "REF_FRAME": "TEME",
    "TIME_SYSTEM": "UTC",
    "MEAN_ELEMENT_THEORY": "SGP4",
    "EPOCH": "2025-11-24T02:47:40.900704",
    "MEAN_MOTION": "1.00272350",
    "ECCENTRICITY": "0.00037090",
    "INCLINATION": "0.8582",
    "RA_OF_ASC_NODE": "300.4783",
    "ARG_OF_PERICENTER": "226.2788",
    "MEAN_ANOMALY": "98.5743",
    "EPHEMERIS_TYPE": "0",
    "CLASSIFICATION_TYPE": "U",
    "NORAD_CAT_ID": "56564",
    "ELEMENT_SET_NO": "999",
    "REV_AT_EPOCH": "933",
    "BSTAR": "0.00000000000000",
    "MEAN_MOTION_DOT": "-0.00000090",
    "MEAN_MOTION_DDOT": "0.0000000000000",
    "SEMIMAJOR_AXIS": "42164.574",
    "PERIOD": "1436.089",
    "APOAPSIS": "35802.077",
    "PERIAPSIS": "35770.800",
    "OBJECT_TYPE": "PAYLOAD",
    "RCS_SIZE": "LARGE",
    "COUNTRY_CODE": "PRC",
    "LAUNCH_DATE": "2023-05-17",
    "SITE": "XSC",
    "DECAY_DATE": null,
    "FILE": "4897232",
    "GP_ID": "303373088",
    "TLE_LINE0": "0 BEIDOU 3 G4",
    "TLE_LINE1": "1 56564U 23066A   25328.11644561 -.00000090  00000-0  00000+0 0  9990",
    "TLE_LINE2": "2 56564   0.8582 300.4783 0003709 226.2788  98.5743  1.00272350  9331"
}